[
    {
        "Altitude(m)": 612502.2449364706,
        "Argument of Periapsis(deg)": 0.0,
        "Eccentricity": 0.0,
        "Inclination(deg)": 60.0,
        "Latitude(deg)": -28.136135986227703,
        "Longitude(deg)": -122.85178821289414,
        "Mean Anomaly(deg)": -32.72729999999996,
        "RAAN(deg)": 355.0,
        "Satellite Name": "Test1 1582",
        "Satellite Number": 1582,
        "Semi-Major Axis(m)": 6980739.136638005,
        "Time(s)": 0
    },
    {
        "Altitude(m)": 612308.6923467179,
        "Argument of Periapsis(deg)": 0.00010418945913296404,
        "Eccentricity": 0.0,
        "Inclination(deg)": 60.0,
        "Latitude(deg)": -27.623191740778516,
        "Longitude(deg)": -122.49831273663123,
        "Mean Anomaly(deg)": -32.1071938545381,
        "RAAN(deg)": 354.99957995086027,
        "Satellite Name": "Test1 1582",
        "Satellite Number": 1582,
        "Semi-Major Axis(m)": 6980739.136638005,
        "Time(s)": 10
    }
]